{"type": "FeatureCollection", "features": [ {"type": "Feature", "properties": {"norad_id": 39122, "name": "EUTELSAT 117 WEST A", "group": "eutelsat", "lat": 0.018643075751317843, "lon": 124.56857177453784, "alt_km": 35796.69697223841, "timestamp": "2025-12-25T09:48:51.957460+00:00", "meta": {"OBJECT_NAME": "EUTELSAT 117 WEST A", "OBJECT_ID": "2013-012A", "EPOCH": "2025-12-25T03:39:37.302048", "MEAN_MOTION": 1.00270793, "ECCENTRICITY": 0.0002746, "INCLINATION": 0.0189, "RA_OF_ASC_NODE": 321.021, "ARG_OF_PERICENTER": 316.4118, "MEAN_ANOMALY": 114.594, "EPHEMERIS_TYPE": 0, "CLASSIFICATION_TYPE": "U", "NORAD_CAT_ID": 39122, "ELEMENT_SET_NO": 999, "REV_AT_EPOCH": 4668, "BSTAR": 0, "MEAN_MOTION_DOT": 8e-08, "MEAN_MOTION_DDOT": 0}, "tle": {"line1": "1 39122U 13012A   25359.15251507  .00000008  00000+0  00000+0 0  9990", "line2": "2 39122   0.0189 321.0210 0002746 316.4118 114.5940  1.00270793 46686"}}, "geometry": {"type": "Point", "coordinates": [124.56857177453784, 0.018643075751317843]}}, {"type": "Feature", "properties": {"norad_id": 39163, "name": "EUTELSAT 7B", "group": "eutelsat", "lat": -0.0739706641508206, "lon": -111.67884223932215, "alt_km": 35780.704362806864, "timestamp": "2025-12-25T09:48:51.957473+00:00", "meta": {"OBJECT_NAME": "EUTELSAT 7B", "OBJECT_ID": "2013-022A", "EPOCH": "2025-12-24T23:24:19.351008", "MEAN_MOTION": 1.00271638, "ECCENTRICITY": 0.0004609, "INCLINATION": 0.0657, "RA_OF_ASC_NODE": 9.0547, "ARG_OF_PERICENTER": 313.3925, "MEAN_ANOMALY": 129.3681, "EPHEMERIS_TYPE": 0, "CLASSIFICATION_TYPE": "U", "NORAD_CAT_ID": 39163, "ELEMENT_SET_NO": 999, "REV_AT_EPOCH": 4620, "BSTAR": 0, "MEAN_MOTION_DOT": 6.9e-07, "MEAN_MOTION_DDOT": 0}, "tle": {"line1": "1 39163U 13022A   25358.97522397  .00000069  00000+0  00000+0 0  9990", "line2": "2 39163   0.0657   9.0547 0004609 313.3925 129.3681  1.00271638 46202"}}, "geometry": {"type": "Point", "coordinates": [-111.67884223932215, -0.0739706641508206]}}, {"type": "Feature", "properties": {"norad_id": 39612, "name": "EXPRESS-AT1", "group": "eutelsat", "lat": -0.010184859877726523, "lon": -62.625082175689684, "alt_km": 35789.943512053986, "timestamp": "2025-12-25T09:48:51.957485+00:00", "meta": {"OBJECT_NAME": "EXPRESS-AT1", "OBJECT_ID": "2014-010A", "EPOCH": "2025-12-24T21:55:35.351040", "MEAN_MOTION": 1.00271265, "ECCENTRICITY": 8.894e-05, "INCLINATION": 0.0123, "RA_OF_ASC_NODE": 292.9239, "ARG_OF_PERICENTER": 186.2231, "MEAN_ANOMALY": 359.4276, "EPHEMERIS_TYPE": 0, "CLASSIFICATION_TYPE": "U", "NORAD_CAT_ID": 39612, "ELEMENT_SET_NO": 999, "REV_AT_EPOCH": 4307, "BSTAR": 0, "MEAN_MOTION_DOT": 1e-06, "MEAN_MOTION_DDOT": 0}, "tle": {"line1": "1 39612U 14010A   25358.91360360  .00000100  00000+0  00000+0 0  9997", "line2": "2 39612   0.0123 292.9239 0000889 186.2231 359.4276  1.00271265 43077"}}, "geometry": {"type": "Point", "coordinates": [-62.625082175689684, -0.010184859877726523]}}, {"type": "Feature", "properties": {"norad_id": 39613, "name": "EXPRESS-AT2", "group": "eutelsat", "lat": 0.014561376678681596, "lon": 21.258407415087593, "alt_km": 35788.19614679687, "timestamp": "2025-12-25T09:48:51.957496+00:00", "meta": {"OBJECT_NAME": "EXPRESS-AT2", "OBJECT_ID": "2014-010B", "EPOCH": "2025-12-24T22:19:25.569120", "MEAN_MOTION": 1.00272061, "ECCENTRICITY": 0.0001582, "INCLINATION": 0.0172, "RA_OF_ASC_NODE": 291.1665, "ARG_OF_PERICENTER": 341.4259, "MEAN_ANOMALY": 295.8232, "EPHEMERIS_TYPE": 0, "CLASSIFICATION_TYPE": "U", "NORAD_CAT_ID": 39613, "ELEMENT_SET_NO": 999, "REV_AT_EPOCH": 4275, "BSTAR": 0, "MEAN_MOTION_DOT": -2.6e-06, "MEAN_MOTION_DDOT": 0}, "tle": {"line1": "1 39613U 14010B   25358.93015705 -.00000260  00000+0  00000+0 0  9998", "line2": "2 39613   0.0172 291.1665 0001582 341.4259 295.8232  1.00272061 42756"}}, "geometry": {"type": "Point", "coordinates": [21.258407415087593, 0.014561376678681596]}}, {"type": "Feature", "properties": {"norad_id": 39773, "name": "EUTELSAT 3B", "group": "eutelsat", "lat": -0.07496844712189515, "lon": -115.51372128839476, "alt_km": 35768.890254855076, "timestamp": "2025-12-25T09:48:51.957508+00:00", "meta": {"OBJECT_NAME": "EUTELSAT 3B", "OBJECT_ID": "2014-030A", "EPOCH": "2025-12-24T23:23:11.959008", "MEAN_MOTION": 1.00269922, "ECCENTRICITY": 0.000425, "INCLINATION": 0.0605, "RA_OF_ASC_NODE": 349.0634, "ARG_OF_PERICENTER": 245.9428, "MEAN_ANOMALY": 212.637, "EPHEMERIS_TYPE": 0, "CLASSIFICATION_TYPE": "U", "NORAD_CAT_ID": 39773, "ELEMENT_SET_NO": 999, "REV_AT_EPOCH": 4232, "BSTAR": 0, "MEAN_MOTION_DOT": 4.1e-07, "MEAN_MOTION_DDOT": 0}, "tle": {"line1": "1 39773U 14030A   25358.97444397  .00000041  00000+0  00000+0 0  9990", "line2": "2 39773   0.0605 349.0634 0004250 245.9428 212.6370  1.00269922 42329"}}, "geometry": {"type": "Point", "coordinates": [-115.51372128839476, -0.07496844712189515]}}, {"type": "Feature", "properties": {"norad_id": 40425, "name": "EUTELSAT 115 WEST B", "group": "eutelsat", "lat": -0.011004675598592889, "lon": 126.46999755518911, "alt_km": 35786.45437759364, "timestamp": "2025-12-25T09:48:51.957520+00:00", "meta": {"OBJECT_NAME": "EUTELSAT 115 WEST B", "OBJECT_ID": "2015-010B", "EPOCH": "2025-12-24T09:59:58.343136", "MEAN_MOTION": 1.00271259, "ECCENTRICITY": 1.435e-05, "INCLINATION": 0.0435, "RA_OF_ASC_NODE": 188.915, "ARG_OF_PERICENTER": 182.2118, "MEAN_ANOMALY": 117.1483, "EPHEMERIS_TYPE": 0, "CLASSIFICATION_TYPE": "U", "NORAD_CAT_ID": 40425, "ELEMENT_SET_NO": 999, "REV_AT_EPOCH": 3964, "BSTAR": 0, "MEAN_MOTION_DOT": -4e-08, "MEAN_MOTION_DDOT": 0}, "tle": {"line1": "1 40425U 15010B   25358.41664749 -.00000004  00000+0  00000+0 0  9999", "line2": "2 40425   0.0435 188.9150 0000143 182.2118 117.1483  1.00271259 39646"}}, "geometry": {"type": "Point", "coordinates": [126.46999755518911, -0.011004675598592889]}}, {"type": "Feature", "properties": {"norad_id": 40875, "name": "EUTELSAT 8 WEST B", "group": "eutelsat", "lat": -0.05913317655838166, "lon": -126.65545153808455, "alt_km": 35772.75782103249, "timestamp": "2025-12-25T09:48:51.957532+00:00", "meta": {"OBJECT_NAME": "EUTELSAT 8 WEST B", "OBJECT_ID": "2015-039B", "EPOCH": "2025-12-24T23:19:57.271296", "MEAN_MOTION": 1.00271306, "ECCENTRICITY": 0.0004225, "INCLINATION": 0.0642, "RA_OF_ASC_NODE": 8.6707, "ARG_OF_PERICENTER": 265.859, "MEAN_ANOMALY": 161.1959, "EPHEMERIS_TYPE": 0, "CLASSIFICATION_TYPE": "U", "NORAD_CAT_ID": 40875, "ELEMENT_SET_NO": 999, "REV_AT_EPOCH": 3791, "BSTAR": 0, "MEAN_MOTION_DOT": -4.5e-07, "MEAN_MOTION_DDOT": 0}, "tle": {"line1": "1 40875U 15039B   25358.97219064 -.00000045  00000+0  00000+0 0  9991", "line2": "2 40875   0.0642   8.6707 0004225 265.8590 161.1959  1.00271306 37916"}}, "geometry": {"type": "Point", "coordinates": [-126.65545153808455, -0.05913317655838166]}}, {"type": "Feature", "properties": {"norad_id": 41310, "name": "EUTELSAT 9B", "group": "eutelsat", "lat": -0.028097556532973075, "lon": -109.61953163615762, "alt_km": 35767.876172180964, "timestamp": "2025-12-25T09:48:51.957544+00:00", "meta": {"OBJECT_NAME": "EUTELSAT 9B", "OBJECT_ID": "2016-005A", "EPOCH": "2025-12-24T06:17:44.244960", "MEAN_MOTION": 1.00272813, "ECCENTRICITY": 0.00045278, "INCLINATION": 0.023, "RA_OF_ASC_NODE": 38.5865, "ARG_OF_PERICENTER": 233.3148, "MEAN_ANOMALY": 284.5874, "EPHEMERIS_TYPE": 0, "CLASSIFICATION_TYPE": "U", "NORAD_CAT_ID": 41310, "ELEMENT_SET_NO": 999, "REV_AT_EPOCH": 3636, "BSTAR": 0, "MEAN_MOTION_DOT": 8.3e-07, "MEAN_MOTION_DDOT": 0}, "tle": {"line1": "1 41310U 16005A   25358.26231765  .00000083  00000+0  00000+0 0  9995", "line2": "2 41310   0.0230  38.5865 0004527 233.3148 284.5874  1.00272813 36363"}}, "geometry": {"type": "Point", "coordinates": [-109.61953163615762, -0.028097556532973075]}}, {"type": "Feature", "properties": {"norad_id": 41382, "name": "EUTELSAT 65 WEST A", "group": "eutelsat", "lat": -0.00752555420066346, "lon": 176.17366940186056, "alt_km": 35787.863169752556, "timestamp": "2025-12-25T09:48:51.957581+00:00", "meta": {"OBJECT_NAME": "EUTELSAT 65 WEST A", "OBJECT_ID": "2016-014A", "EPOCH": "2025-12-24T19:38:18.500352", "MEAN_MOTION": 1.00272022, "ECCENTRICITY": 0.00022735, "INCLINATION": 0.0488, "RA_OF_ASC_NODE": 342.9947, "ARG_OF_PERICENTER": 293.8547, "MEAN_ANOMALY": 46.1348, "EPHEMERIS_TYPE": 0, "CLASSIFICATION_TYPE": "U", "NORAD_CAT_ID": 41382, "ELEMENT_SET_NO": 999, "REV_AT_EPOCH": 3578, "BSTAR": 0, "MEAN_MOTION_DOT": -2.55e-06, "MEAN_MOTION_DDOT": 0}, "tle": {"line1": "1 41382U 16014A   25358.81826968 -.00000255  00000+0  00000+0 0  9992", "line2": "2 41382   0.0488 342.9947 0002273 293.8547  46.1348  1.00272022 35785"}}, "geometry": {"type": "Point", "coordinates": [176.17366940186056, -0.00752555420066346]}}, {"type": "Feature", "properties": {"norad_id": 41589, "name": "EUTELSAT 117 WEST B", "group": "eutelsat", "lat": -0.005133080099383821, "lon": 124.38622737546083, "alt_km": 35786.98645198543, "timestamp": "2025-12-25T09:48:51.957594+00:00", "meta": {"OBJECT_NAME": "EUTELSAT 117 WEST B", "OBJECT_ID": "2016-038B", "EPOCH": "2025-12-24T09:59:01.014144", "MEAN_MOTION": 1.00277873, "ECCENTRICITY": 6.384e-05, "INCLINATION": 0.0094, "RA_OF_ASC_NODE": 154.0765, "ARG_OF_PERICENTER": 139.5473, "MEAN_ANOMALY": 192.3072, "EPHEMERIS_TYPE": 0, "CLASSIFICATION_TYPE": "U", "NORAD_CAT_ID": 41589, "ELEMENT_SET_NO": 999, "REV_AT_EPOCH": 3491, "BSTAR": 0, "MEAN_MOTION_DOT": 9e-08, "MEAN_MOTION_DDOT": 0}, "tle": {"line1": "1 41589U 16038B   25358.41598396  .00000009  00000+0  00000+0 0  9990", "line2": "2 41589   0.0094 154.0765 0000638 139.5473 192.3072  1.00277873 34915"}}, "geometry": {"type": "Point", "coordinates": [124.38622737546083, -0.005133080099383821]}}]}